latitude,longitude,municipality,municipality_uri,municipality_id,street_name_uri,street_name,house_number,house_number_addition,postal_code,charging_station_name,operator_uri,charging_station_id,operator,operator_id,operating_mode,num_charging_points,types_charging_points,charging_cards,cost,opening_hours,website
54.088244,12.124536,Kröpeliner-Tor-Vorstadt,https://www.wikidata.org/wiki/Q1790661,kropeliner_tor_vorstadt,https://www.wikidata.org/wiki/Q104344650,Gertrudenplatz,2,,18057,Gertrudenplatz 2,https://www.wikidata.org/wiki/Q39524051,gertrudenplatz_2,Stadtwerke Rostock,stadtwerke_rostock_ag,public,2,Typ 2 22 kW,ADAC e-Charge;EnBW mobility+;MAINGAU Autostrom;Plugsurfing;Stadtwerke Rostock,0.39 €/kWh; Base 0.99 €,24/7,https://www.goingelectric.de/stromtankstellen/Deutschland/Rostock/Gertrudenplatz-Gertrudenplatz-2/19328/
54.059539,12.118082,Südstadt,https://www.wikidata.org/wiki/Q2381518,sudstadt,https://www.wikidata.org/wiki/Q104164614,Lise-Meitner-Ring,1,,18059,team Tankstelle,,team_tankstelle,team energie GmbH & Co. KG,team_energie_gmbh_and_co_kg,public,5,4 x Combo Typ 2 (CCS) EU 300 kW; 1 x CHAdeMO 100 kW,ADAC e-Charge;EnBW mobility+;MAINGAU Autostrom;Plugsurfing;Shell Recharge,,24/7,https://www.goingelectric.de/stromtankstellen/Deutschland/Rostock/team-Tankstelle-Lise-Meitner-Ring-1/74320/
54.100504,12.181877,Brinckmansdorf,https://www.wikidata.org/wiki/Q917349,brinckmansdorf,https://www.wikidata.org/wiki/Q104163762,Alte Dorfstraße,25,,18146,BMW Autohaus Wigger,https://www.wikidata.org/wiki/Q29000342,bmw_autohaus_wigger,TOTAL Deutschland GmbH,total_deutschland_gmbh,semipublic,2,Typ 2 22 kW,ADAC e-Charge;EnBW mobility+;MAINGAU Autostrom;Plugsurfing;Shell Recharge,chargeable,24/7,https://www.goingelectric.de/stromtankstellen/Deutschland/Rostock/BMW-Autohaus-Wigger-Alte-Dorfstrasse-25/46610/
54.109952,12.168471,Dierkow-Neu,https://www.wikidata.org/wiki/Q15944730,dierkow_neu,https://www.wikidata.org/wiki/Q104164620,Lorenzstraße,75,,18146,Shell Tankstelle,https://www.wikidata.org/wiki/Q154950,shell_tankstelle,Shell,shell_ev_charging_solutions_germany_gmbh,semipublic,4,Combo Typ 2 360 kW,ADAC e-Charge;EnBW mobility+;LogPay Charge&Fuel Card und App;Plugsurfing;Shell Recharge,,24/7,https://www.goingelectric.de/stromtankstellen/Deutschland/Rostock/Shell-Tankstelle-Lorenzstrasse-Lorenzstrasse-75/69089/
54.17606,12.05627,Warnemünde,https://www.wikidata.org/wiki/Q311849,seebad_warnemunde,https://www.wikidata.org/wiki/Q101194725,Parkstraße,47,,18119,Parkplatz Strand Mitte,https://www.wikidata.org/wiki/Q39524051,parkplatz_strand_mitte,Stadtwerke Rostock,stadtwerke_rostock_ag,public,4,Typ 2 22kW,ADAC e-Charge;EnBW mobility+;MAINGAU Autostrom;Plugsurfing;Spontanladen,,24/7,https://www.goingelectric.de/stromtankstellen/Deutschland/Rostock/Parkplatz-Strand-Mitte-Parkstrasse-47/66527/
54.138796,12.074583,Schmarl,https://www.wikidata.org/wiki/Q681873,schmarl,https://www.wikidata.org/wiki/Q104165165,Zur Hansemesse,1,,18106,HanseMesse,https://www.wikidata.org/wiki/Q39524051,hansemesse,Stadtwerke Rostock,stadtwerke_rostock_ag,public,4,2x Typ 2 11 kW; 2x Schuko 2.3 kW,ohne Authentifizierung;Spontanladen,free of charge,24/7,https://www.goingelectric.de/stromtankstellen/Deutschland/Rostock/HanseMesse-Zur-HanseMesse-1-2/8541/
54.112387,12.136906,Toitenwinkel,https://www.wikidata.org/wiki/Q1309539,toitenwinkel,https://www.wikidata.org/wiki/Q104164427,Joliot-Curie-Allee,25,,18147,Joliot-Curie-Allee,https://www.wikidata.org/wiki/Q39524051,joliot_curie_allee,Stadtwerke Rostock,stadtwerke_rostock_ag,public,2,Typ 2 22 kW,ADAC e-Charge;EnBW mobility+;MAINGAU Autostrom;Plugsurfing;Stadtwerke Rostock,0.39 €/kWh; Base 0.99 €,24/7,https://www.goingelectric.de/stromtankstellen/Deutschland/Rostock/Joliot-Curie-Allee-Joliot-Curie-Allee-25/44004/
54.084009,12.126989,Stadtmitte,https://www.wikidata.org/wiki/Q1124159,stadtmitte,https://www.wikidata.org/wiki/Q104163842,Am Vögenteich,30,,18055,Am Vögenteich 30,https://www.wikidata.org/wiki/Q39524051,am_vogenteich_30,Stadtwerke Rostock,stadtwerke_rostock_ag,public,2,Typ 2 22 kW,ADAC e-Charge;EnBW mobility+;MAINGAU Autostrom;Plugsurfing;Stadtwerke Rostock,0.39 €/kWh; Base 0.99 €,24/7,https://www.goingelectric.de/stromtankstellen/Deutschland/Rostock/Am-Voegenteich-Am-Voegenteich-30/40041/
54.08915,12.149386,Stadtmitte,https://www.wikidata.org/wiki/Q1124159,stadtmitte,https://www.wikidata.org/wiki/Q104164583,Küterbruch,5,,18055,Parkhaus Altstadt,,parkhaus_altstadt,Parkhaus Gesellschaft Rostock GmbH,parkhaus_gesellschaft_rostock_gmbh,semipublic,2,Typ 2 22 kW,beliebige RFID-Ladekarten;Spontanladen,Parking charges,24/7,https://www.goingelectric.de/stromtankstellen/Deutschland/Rostock/Parkhaus-Altstadt-Kueterbruch-5/43311/
54.08557,12.134524,Stadtmitte,https://www.wikidata.org/wiki/Q1124159,stadtmitte,https://www.wikidata.org/wiki/Q104163643,August-Bebel-Straße,88,,18055,Parkhaus am Gericht,https://www.wikidata.org/wiki/Q59587711,parkhaus_am_gericht,WIRO Wohnen in Rostock,wohnen_in_rostock_wohnungsgesellschaft_mbh,semipublic,2,Typ 2 11 kW,ohne Authentifizierung;Spontanladen,Parking charges,24/7,https://www.goingelectric.de/stromtankstellen/Deutschland/Rostock/Parkhaus-Am-Gericht-August-Bebel-Strasse-88/4657/
54.1109130056888,12.1645180731329,Toitenwinkel,https://www.wikidata.org/wiki/Q1309539,toitenwinkel,https://www.wikidata.org/wiki/Q104164337,Hinrichsdorfer Straße,7,d,18146,EUROMASTER,https://www.wikidata.org/wiki/Q75560554,euromaster,Allego,allego_gmbh,public,3,1x CHAdeMO 50 kW; 1x Combo Typ 2 50 kW; 1x Typ 2 43 kW,EinfachStromLaden;EWE;GET CHARGE;Plugsurfing;Shell Recharge,chargeable,24/7,https://www.goingelectric.de/stromtankstellen/Deutschland/Rostock/Euromaster-Hinrichsdorfer-Strasse-7K/28508/
54.12169,12.061053,Evershagen,https://www.wikidata.org/wiki/Q1382123,evershagen,https://www.wikidata.org/wiki/Q104164327,Henrik-Ibsen-Straße,27,,18106,Parkplatz Henrik-Ibsen-Str.,https://www.wikidata.org/wiki/Q39524051,parkplatz_henrik_ibsen_str,Stadtwerke Rostock,stadtwerke_rostock_ag,public,2,Typ 2 22 kW,ADAC e-Charge;EnBW mobility+;MAINGAU Autostrom;Plugsurfing;Stadtwerke Rostock,,24/7,https://www.goingelectric.de/stromtankstellen/Deutschland/Rostock/Henrik-Ibsen-Strasse-Henrik-Ibsen-Strasse-20/46673/
54.114382,12.05593,Evershagen,https://www.wikidata.org/wiki/Q1382123,evershagen,https://www.wikidata.org/wiki/Q104164679,Messestraße,16,,18106,Parkplatz Messestr.,https://www.wikidata.org/wiki/Q39524051,parkplatz_messestr,Stadtwerke Rostock,stadtwerke_rostock_ag,public,2,Typ 2 22kW,ADAC e-Charge;EnBW mobility+;MAINGAU Autostrom;Plugsurfing;Stadtwerke Rostock,,24/7,https://www.goingelectric.de/stromtankstellen/Deutschland/Rostock/Messestrasse-Messestrasse-16/55554/
54.099596,12.07302,Reutershagen,https://www.wikidata.org/wiki/Q1486513,reutershagen,https://www.wikidata.org/wiki/Q104164011,Conrad-Blenkle-Straße,22,,18069,Reuterpassage,https://www.wikidata.org/wiki/Q75560554,reuterpassage,Allego,allego_gmbh,semipublic,2,Typ 2 22 kW,ADAC e-Charge;EnBW mobility+;MAINGAU Autostrom;Plugsurfing;Shell Recharge,chargeable,24/7,https://www.goingelectric.de/stromtankstellen/Deutschland/Rostock/Reuterpassage-Goerdelerstrasse-52/38470/
54.082496,12.194204,Brinckmansdorf,https://www.wikidata.org/wiki/Q917349,brinckmansdorf,https://www.wikidata.org/wiki/Q104165030,Timmermannsstrat,12,,18055,Handelshof,https://www.wikidata.org/wiki/Q701755,handelshof,Edeka,edeka_foodservice_handelshof_management_gmbh,semipublic,10,Typ 2 11 kW,,,Mo-Fr 07:00-20:00; Sa 07:00-18:00,https://www.goingelectric.de/stromtankstellen/Deutschland/Rostock/Handelshof-Timmermannsstrat-12/52245/
54.087277,12.140742,Stadtmitte,https://www.wikidata.org/wiki/Q1124159,stadtmitte,https://www.wikidata.org/wiki/Q2341682,Steinstraße,3,,18055,Steinstrasse,https://www.wikidata.org/wiki/Q39524051,steinstrasse,Stadtwerke Rostock,stadtwerke_rostock_ag,public,2,Typ 2 22 kW,ADAC e-Charge;EnBW mobility+;MAINGAU Autostrom;Plugsurfing;Stadtwerke Rostock,0.39 €/kWh; Base 0.99 €,24/7,https://www.goingelectric.de/stromtankstellen/Deutschland/Rostock/Steinstrasse-Steinstrasse-3/64354/
54.093514,12.118231,Stadtmitte,https://www.wikidata.org/wiki/Q1124159,stadtmitte,https://www.wikidata.org/wiki/Q104163730,Warnowufer,58,,18057,Parkplatz Warnowufer,https://www.wikidata.org/wiki/Q39524051,parkplatz_warnowufer,Stadtwerke Rostock,stadtwerke_rostock_ag,public,2,Typ 2 22 kW,ADAC e-Charge;EnBW mobility+;MAINGAU Autostrom;Plugsurfing;Stadtwerke Rostock,0.39 €/kWh; Base 0.99 €,24/7,https://www.goingelectric.de/stromtankstellen/Deutschland/Rostock/Warnowufer-Warnowufer-58/28894/
54.090066,12.132101,Stadtmitte,https://www.wikidata.org/wiki/Q1124159,stadtmitte,https://www.wikidata.org/wiki/Q1651266,Lange Straße,4,,18055,Lange Strasse,https://www.wikidata.org/wiki/Q39524051,lange_strasse,Stadtwerke Rostock,stadtwerke_rostock_ag,public,2,Typ 2 22 kW,ADAC e-Charge;EnBW mobility+;MAINGAU Autostrom;Plugsurfing;Stadtwerke Rostock,0.39 €/kWh; Base 0.99 €,24/7,https://www.goingelectric.de/stromtankstellen/Deutschland/Rostock/Lange-Strasse-Lange-Strasse-4/61476/
54.0894944961845,12.1298330828148,Stadtmitte,https://www.wikidata.org/wiki/Q1124159,stadtmitte,https://www.wikidata.org/wiki/Q1651266,Lange Straße,40,,18055,Kröpeliner Tor Center / Radisson Blu Hotel,https://www.wikidata.org/wiki/Q19724671,kropeliner_tor_center_radisson_blu_hotel,Radisson Hotel Group,radisson_hospitality_inc,semipublic,2,1x Typ 2 11 kW; 1x CEE Rot 11 kW,ohne Authentifizierung,Parking charges,24/7,https://www.goingelectric.de/stromtankstellen/Deutschland/Rostock/Radisson-Blu-Hotel-Lange-Strasse-40/3072/
54.089818,12.135569,Stadtmitte,https://www.wikidata.org/wiki/Q1124159,stadtmitte,https://www.wikidata.org/wiki/Q1651266,Lange Straße,27,,18055,City-Ladesäule,https://www.wikidata.org/wiki/Q39524051,city_ladesaule,Stadtwerke Rostock,stadtwerke_rostock_ag,public,2,Typ 2 22 kW,ADAC e-Charge;EnBW mobility+;MAINGAU Autostrom;Plugsurfing;Stadtwerke Rostock,0.39 €/kWh; Base 0.99 €,24/7,https://www.goingelectric.de/stromtankstellen/Deutschland/Rostock/City-Ladesaeule-Lange-Strasse-27/19579/
54.169428,12.036694,Diedrichshagen,https://www.wikidata.org/wiki/Q638302,seebad_diedrichshagen,https://www.wikidata.org/wiki/Q104163836,Am Stolteraer Ring,2,,18119,Strandhafer Aparthotel,https://www.wikidata.org/wiki/Q1262665,strandhafer_aparthotel,Mennekes,mennekes_elektrotechnik_gmbh_and_co_kg,semipublic,2,Typ 2 22kW,EnBW mobility+;Shell Recharge,,24/7,https://www.e-stations.de/ladestationen/map
54.157938,12.064424,Rostock-Lichtenhagen,https://www.wikidata.org/wiki/Q741012,lichtenhagen,https://www.wikidata.org/wiki/Q104164716,Neustrelitzer Straße,6,,18109,Neustrelitzer Str. 6,,neustrelitzer_str_6,Wohnungsgenossenschaft WARNOW Rostock-Warnemünde eG,wohnungsgenossenschaft_warnow_rostock_warnemunde_eg,public,2,Typ 2 22 kW,ADAC e-Charge;EnBW mobility+;MAINGAU Autostrom;Plugsurfing;Stadtwerke Rostock,0.39 €/kWh; Base 0.99 €,24/7,https://www.goingelectric.de/stromtankstellen/Deutschland/Rostock/E-Ladesaeule-Neustrelitzer-Strasse-6-Neustrelitzer-Strasse-6/31628/
54.0922324536467,12.1651722108809,Brinckmansdorf,https://www.wikidata.org/wiki/Q917349,brinckmansdorf,https://www.wikidata.org/wiki/Q104164881,Rövershäger Chaussee,1,,18146,Rövershäger Chaussee 1,https://www.wikidata.org/wiki/Q75560554,rovershager_chaussee_1,Allego,allego_gmbh,public,7,1x Typ 2 43 KW; 1x CHAdeMO 50 kW; 1x Combo Typ 2 50 kW; 2x Combo Typ 2 320 kW; 2x Combo Typ 2 160 kW,EinfachStromLaden;EWE;GET CHARGE;Plugsurfing;Shell Recharge,chargeable,24/7,
54.088112,12.141234,Stadtmitte,https://www.wikidata.org/wiki/Q1124159,stadtmitte,https://www.wikidata.org/wiki/Q1262508,Neuer Markt,2,,18055,Vienna House Sonne,https://www.wikidata.org/wiki/Q2523363,vienna_house_sonne,Vienna House,vienna_house_hotelmanagement_gmbh,semipublic,1,1x Schuko 3 kW,ohne Authentifizierung,Parking charges,24/7,https://www.goingelectric.de/stromtankstellen/Deutschland/Rostock/Vienna-House-Sonne-Neuer-Markt-2/42605/
54.096936,12.102629,Kröpeliner-Tor-Vorstadt,https://www.wikidata.org/wiki/Q1790661,kropeliner_tor_vorstadt,https://www.wikidata.org/wiki/Q104163806,Am Kayenmühlengraben,2,,18057,Boulderhalle,https://www.wikidata.org/wiki/Q154950,boulderhalle,Shell,shell_ev_charging_solutions_germany_gmbh,public,1,Typ 2 11 kW,ADAC e-Charge;EnBW mobility+;Plugsurfing;Shell Recharge;SMATRICS NET,chargeable,24/7,https://www.e-stations.de/ladestationen/map
54.180061,12.080908,Warnemünde,https://www.wikidata.org/wiki/Q311849,seebad_warnemunde,https://www.wikidata.org/wiki/Q104163721,Seestraße,15,a,18119,Seestr.,https://www.wikidata.org/wiki/Q39524051,seestr,Stadtwerke Rostock,stadtwerke_rostock_ag,public,2,Typ 2 22 kW,EinfachStromLaden;EnBW mobility+;GET CHARGE;MAINGAU Autostrom;Plugsurfing,0.39 €/kWh; Base 0.99 €,24/7,https://www.goingelectric.de/stromtankstellen/Deutschland/Rostock/Seestrasse-Seestrasse-15/40637/
54.178861,12.077543,Warnemünde,https://www.wikidata.org/wiki/Q311849,seebad_warnemunde,https://www.wikidata.org/wiki/Q104163721,Seestraße,19,,18119,Parkhaus Hotel NEPTUN,https://www.wikidata.org/wiki/Q874013,parkhaus_hotel_neptun,Hotel Neptun,hotel_neptun_betriebsgesellschaft_mbh,semipublic,2,Typ 2 11 kW,Spontanladen,Parking charges,24/7,https://www.goingelectric.de/stromtankstellen/Deutschland/Rostock/Parkhaus-Hotel-NEPTUN-Seestrasse-19/18059/
54.076424,12.100077,Südstadt,https://www.wikidata.org/wiki/Q2381518,sudstadt,https://www.wikidata.org/wiki/Q104164903,Satower Straße,7,,18059,Lidl Satower Str.,https://www.wikidata.org/wiki/Q151954,lidl_satower_str,Lidl,lidl_vertriebs_gmbh_and_co_kg,semipublic,3,1x Combo Typ 2 50kW; 1x Typ2 22 kW; 1x CHAdeMO 50kW,ADAC e-Charge;EnBW mobility+;MAINGAU Autostrom;Plugsurfing;Shell Recharge,,Mo-Sa 07:00-21:00,https://www.goingelectric.de/stromtankstellen/Deutschland/Rostock/Lidl-Satower-Strasse-Satower-Strasse-7/46657/
54.064278,12.115427,Südstadt,https://www.wikidata.org/wiki/Q2381518,sudstadt,https://www.wikidata.org/wiki/Q104164875,Röntgenstraße,12,,18059,Röntgenstrasse 12,https://www.wikidata.org/wiki/Q39524051,rontgenstrasse_12,Stadtwerke Rostock,stadtwerke_rostock_ag,public,2,Typ 2 22 kW,ADAC e-Charge;EnBW mobility+;MAINGAU Autostrom;Plugsurfing;Stadtwerke Rostock,,24/7,https://www.goingelectric.de/stromtankstellen/Deutschland/Rostock/Roentgenstrasse-Roentgenstrasse-12/50437/
54.076764,12.120313,Südstadt,https://www.wikidata.org/wiki/Q2381518,sudstadt,https://www.wikidata.org/wiki/Q104164836,Pütterweg,1,,18059,Pütterweg 1,https://www.wikidata.org/wiki/Q39524051,putterweg_1,Stadtwerke Rostock,stadtwerke_rostock_ag,public,2,Typ 2 22 kW,ADAC e-Charge;EnBW mobility+;GET CHARGE;MAINGAU Autostrom;Plugsurfing;Stadtwerke Rostock,0.39 €/kWh; Base 0.99 €,24/7,https://www.goingelectric.de/stromtankstellen/Deutschland/Rostock/Kaufland-Puetterweg-2/40016/
54.086512,12.141436,Stadtmitte,https://www.wikidata.org/wiki/Q1124159,stadtmitte,https://www.wikidata.org/wiki/Q104163663,Ernst-Barlach-Straße,1,,18055,IHK zu Rostock,https://www.wikidata.org/wiki/Q81804571,ihk_zu_rostock,Industrie- und Handelskammer zu Rostock,industrie__und_handelskammer_zu_rostock,private,1,Typ 2 11 kW,,,Mo-Do 07:00-18:00; Fr 07:00-15:00,https://www.goingelectric.de/stromtankstellen/Deutschland/Rostock/IHK-zu-Rostock-Ernst-Barlach-Strasse-1-3/61032/
54.138336,12.114106,Peez,https://www.wikidata.org/wiki/Q2067247,peez,https://www.wikidata.org/wiki/Q104165155,Zum Südtor,5,,18147,BorderShop,https://www.wikidata.org/wiki/Q270223,bordershop,E.ON SE,eon_se,semipublic,3,1x Typ 2 43 kW; 1x CHAdeMO 50 kW; 1x Combo Typ 2 50 kW,ohne Authentifizierung,chargeable,24/7,https://www.goingelectric.de/stromtankstellen/Deutschland/Rostock/BorderShop-Zum-Suedtor-5/42667/
54.076812,12.12136,Südstadt,https://www.wikidata.org/wiki/Q2381518,sudstadt,https://www.wikidata.org/wiki/Q104164836,Pütterweg,2,a,18059,Kaufland Südstadt,https://www.wikidata.org/wiki/Q685967,kaufland_sudstadt,Kaufland,kaufland_stiftung_gmbh_and_co_kg,public,3,2 x Combo Typ 2 (CCS) EU 60 kW; 1 x Typ 2 Dose 22 kW,ADAC e-Charge;EnBW mobility+;MAINGAU Autostrom;Plugsurfing;Shell Recharge,,Mo-Sa 07:00-22:00,https://www.goingelectric.de/stromtankstellen/Deutschland/Rostock/Kaufland-Suedstadt-Puetterweg-1/74456/
54.1077639361823,12.0521365507219,Evershagen,https://www.wikidata.org/wiki/Q1382123,evershagen,https://www.wikidata.org/wiki/Q104164679,Messestraße,25,,18069,IKEA,https://www.wikidata.org/wiki/Q1653977,ikea,IKEA Deutschland,ikea_deutschland_gmbh_and_co_kg,public,6,2x Typ 2 22 kW; 2x CHAdeMO 20 kW; 2x Combo Typ 2 20 kW,ohne Authentifizierung,free of charge,Mo-Sa 10:00-20:00,https://www.goingelectric.de/stromtankstellen/Deutschland/Rostock/IKEA-Messestrasse-25/41179/
54.0806004469112,12.1912887925953,Brinckmansdorf,https://www.wikidata.org/wiki/Q917349,brinckmansdorf,https://www.wikidata.org/wiki/Q104165019,Tessiner Straße,96,,18055,Tessiner Str.,https://www.wikidata.org/wiki/Q39524051,tessiner_str,Stadtwerke Rostock,stadtwerke_rostock_ag,public,2,2x Typ 2 22 kW,EinfachStromLaden;EnBW mobility+;GET CHARGE;Plugsurfing,0.39 €/kWh; Base 0.99 €,24/7,https://www.goingelectric.de/stromtankstellen/Deutschland/Rostock/Tessiner-Strasse-Tessiner-Strasse-96/41175/
54.177052,12.098772,Hohe Düne,https://www.wikidata.org/wiki/Q1484905,seebad_hohe_dune,https://www.wikidata.org/wiki/Q104163849,Am Yachthafen,1,,18119,Yachthafenresidenz Hohe Düne,,yachthafenresidenz_hohe_dune,Yachthafenresidenz Hohe Düne GmbH,yachthafenresidenz_hohe_dune_gmbh,semipublic,2,Typ 2 11 kW,Spontanladen,Parking charges,24/7,https://www.goingelectric.de/stromtankstellen/Deutschland/Rostock-Warnemuende/Yachthafenresidenz-Hohe-Duene-Am-Yachthafen-1/6284/
54.191851,12.150891,Markgrafenheide,https://www.wikidata.org/wiki/Q1900690,seebad_markgrafenheide,https://www.wikidata.org/wiki/Q104165087,Warnemünder Straße,5,,18146,Hotel Godewind,,hotel_godewind,HTL Haus-Elektrotechnik Lehmkuhl,htl_haus_elektrotechnik_lehmkuhl,semipublic,2,Typ 2 22 kW,ADAC e-Charge;EnBW mobility+;MAINGAU Autostrom;Plugsurfing;Shell Recharge,chargeable,Mo-So 09:00-20:00,https://www.goingelectric.de/stromtankstellen/Deutschland/Rostock/Hotel-Godewind-Warnemuender-Strasse-5/45481/
54.178761,12.082962,Warnemünde,https://www.wikidata.org/wiki/Q311849,seebad_warnemunde,https://www.wikidata.org/wiki/Q104163681,Heinrich-Heine-Straße,28,,18119,Heinrich-Heine-Str.,https://www.wikidata.org/wiki/Q39524051,heinrich_heine_str,Stadtwerke Rostock,stadtwerke_rostock_ag,public,2,Typ 2 22kW,ADAC e-Charge;EnBW mobility+;MAINGAU Autostrom;Plugsurfing;Spontanladen,,24/7,https://www.goingelectric.de/stromtankstellen/Deutschland/Rostock/Heinrich-Heine-Strasse-Heinrich-Heine-Strasse-28/72164/
54.176192,12.076364,Warnemünde,https://www.wikidata.org/wiki/Q311849,seebad_warnemunde,https://www.wikidata.org/wiki/Q101194725,Parkstraße,7,,18119,Stephan-Jantzen-Park,https://www.wikidata.org/wiki/Q39524051,stephan_jantzen_park,Stadtwerke Rostock,stadtwerke_rostock_ag,public,2,Typ 2 22kW,ADAC e-Charge;EnBW mobility+;MAINGAU Autostrom;Plugsurfing,,24/7,https://www.goingelectric.de/stromtankstellen/Deutschland/Rostock/Stephan-Jantzen-Park-Parkstrasse-7/70965/
54.1256,12.083541,Schmarl,https://www.wikidata.org/wiki/Q681873,schmarl,https://www.wikidata.org/wiki/Q104164918,Schmarler Damm,5,,18069,Kundenparkplatz Stadtwerke Rostock AG,https://www.wikidata.org/wiki/Q39524051,kundenparkplatz_stadtwerke_rostock_ag,Stadtwerke Rostock,stadtwerke_rostock_ag,semipublic,2,Typ 2 22 kW,ADAC e-Charge;EnBW mobility+;GET CHARGE;MAINGAU Autostrom;Plugsurfing;Stadtwerke Rostock,0.39 €/kWh; Base 0.99 €,24/7,https://www.goingelectric.de/stromtankstellen/Deutschland/Rostock/Kundenparkplatz-Stadtwerke-Schmarler-Damm-5/44665/
54.117382,12.085195,Schmarl,https://www.wikidata.org/wiki/Q681873,schmarl,https://www.wikidata.org/wiki/Q104164108,Fischerweg,408,,18069,Fischerweg 408,https://www.wikidata.org/wiki/Q39524051,fischerweg_408,Stadtwerke Rostock,stadtwerke_rostock_ag,public,2,Typ 2 22 kW,ADAC e-Charge;EnBW mobility+;MAINGAU Autostrom;Plugsurfing;Stadtwerke Rostock,0.39 €/kWh; Base 0.99 €,24/7,https://www.goingelectric.de/stromtankstellen/Deutschland/Rostock/Fischereihafen-Fischerweg-408/44664/
54.073597,12.108166,Südstadt,https://www.wikidata.org/wiki/Q2381518,sudstadt,https://www.wikidata.org/wiki/Q104164673,Max-Planck-Straße,16,,18059,Max-Planck-Str. 16,https://www.wikidata.org/wiki/Q39524051,max_planck_str_16,Stadtwerke Rostock,stadtwerke_rostock_ag,public,2,Typ 2 22 kW,ADAC e-Charge;EnBW mobility+;MAINGAU Autostrom;Plugsurfing;Stadtwerke Rostock,,24/7,https://www.goingelectric.de/stromtankstellen/Deutschland/Rostock/Max-Planck-Strasse-Max-Planck-Strasse-16/52480/
54.15797,12.063525,Rostock-Lichtenhagen,https://www.wikidata.org/wiki/Q741012,lichtenhagen,https://www.wikidata.org/wiki/Q104164716,Neustrelitzer Straße,5,,18109,Neustrelitzer Str. 5,,neustrelitzer_str_5,Wohnungsgenossenschaft WARNOW Rostock-Warnemünde eG,wohnungsgenossenschaft_warnow_rostock_warnemunde_eg,public,2,Typ 2 22 kW,ADAC e-Charge;EnBW mobility+;MAINGAU Autostrom;Plugsurfing;Stadtwerke Rostock,0.39 €/kWh; Base 0.99 €,24/7,https://www.goingelectric.de/stromtankstellen/Deutschland/Rostock/E-Ladesaeule-Neustrelitzer-Strasse-5-Neustrelitzer-Strasse-5/31627/
54.134281,12.071484,Schmarl,https://www.wikidata.org/wiki/Q681873,schmarl,https://www.wikidata.org/wiki/Q104164534,Kolumbusring,61,,18106,Parkplatz Schmarler Zentrum,https://www.wikidata.org/wiki/Q644304,parkplatz_schmarler_zentrum,EnBW,enbw_energie_baden_wurttemberg_ag,public,4,2x Combo Typ 2 300 kW; 2x Combo Typ 2 150 kW,ADAC e-Charge;EnBW mobility+;MAINGAU Autostrom;Plugsurfing;Shell Recharge,,24/7,https://www.goingelectric.de/stromtankstellen/Deutschland/Rostock/Schmarler-Centrum-Kolumbusring-61/63107/
54.132568,12.063779,Lütten Klein,https://www.wikidata.org/wiki/Q1880458,lutten_klein,https://www.wikidata.org/wiki/Q104163875,An der Stadtautobahn,38,,18107,Avia Tankstelle An der Stadtautobahn,https://www.wikidata.org/wiki/Q39524051,avia_tankstelle_an_der_stadtautobahn,Stadtwerke Rostock,stadtwerke_rostock_ag,public,2,Combo Typ 2 160 kW,ADAC e-Charge;EnBW mobility+;MAINGAU Autostrom;Plugsurfing;Stadtwerke Rostock,,24/7,https://www.goingelectric.de/stromtankstellen/Deutschland/Rostock/Avia-Tankstelle-An-der-Stadtautobahn-An-der-Stadtautobahn-38/70086/
54.08888,12.104551,Kröpeliner-Tor-Vorstadt,https://www.wikidata.org/wiki/Q1790661,kropeliner_tor_vorstadt,https://www.wikidata.org/wiki/Q56558520,Ulmenstraße,54,,18057,Ulmenstr.,https://www.wikidata.org/wiki/Q39524051,ulmenstr,Stadtwerke Rostock,stadtwerke_rostock_ag,public,2,Typ 2 22kW,ADAC e-Charge;EnBW mobility+;MAINGAU Autostrom;Plugsurfing;Stadtwerke Rostock,,24/7,https://www.goingelectric.de/stromtankstellen/Deutschland/Rostock/Ulmenstrasse-Ulmenstrasse-61/70966/
54.07715,12.124589,Südstadt,https://www.wikidata.org/wiki/Q2381518,sudstadt,https://www.wikidata.org/wiki/Q62284363,Südring,90,,18059,Parkplatz Stadthalle,,parkplatz_stadthalle,ICA Chipkartensysteme GmbH&Co KG,ica_chipkartensysteme_gmbhandco_kg,public,6,Typ 2 22 kW,ADAC e-Charge;BEW Lokalstrom mobil;MAINGAU Autostrom;Plugsurfing;Shell Recharge,,24/7,https://www.goingelectric.de/stromtankstellen/Deutschland/Rostock/Stadthalle-Suedring-90/53665/
54.106125,12.084743,Reutershagen,https://www.wikidata.org/wiki/Q1486513,reutershagen,https://www.wikidata.org/wiki/Q104164138,Fritz-Triddelfitz-Weg,5,,18069,abc Bau â€“ Ausbildungscentrum,https://www.wikidata.org/wiki/Q39524051,abc_bau_â€“_ausbildungscentrum,Stadtwerke Rostock,stadtwerke_rostock_ag,semipublic,2,Typ 2 11 kW,EnBW mobility+;Stadtwerke Rostock,,Mo-Do 07:00-16:00; Fr 07:00-14:00,https://www.e-stations.de/ladestationen/map
54.09255,12.144678,Stadtmitte,https://www.wikidata.org/wiki/Q1124159,stadtmitte,https://www.wikidata.org/wiki/Q104163636,Am Strande,3,a,18055,Ladesäule am Hafen,https://www.wikidata.org/wiki/Q39524051,ladesaule_am_hafen,Stadtwerke Rostock,stadtwerke_rostock_ag,public,2,Typ 2 22 kW,ADAC e-Charge;EnBW mobility+;MAINGAU Autostrom;Plugsurfing;Stadtwerke Rostock,0.39 €/kWh; Base 0.99 €,24/7,https://www.goingelectric.de/stromtankstellen/Deutschland/Rostock/Ladesaeule-am-Hafen-Am-Strande-3a/19577/
54.089884,12.106736,Kröpeliner-Tor-Vorstadt,https://www.wikidata.org/wiki/Q1790661,kropeliner_tor_vorstadt,https://www.wikidata.org/wiki/Q104164284,Hansastraße,1,,18057,Ulmenstrasse,https://www.wikidata.org/wiki/Q39524051,ulmenstrasse,Stadtwerke Rostock,stadtwerke_rostock_ag,public,2,Typ 2 22 kW,ADAC e-Charge;EnBW mobility+;MAINGAU Autostrom;Plugsurfing;Stadtwerke Rostock,,24/7,https://www.goingelectric.de/stromtankstellen/Deutschland/Rostock/Ulmenstrasse-Ulmenstrasse-61/70966/
54.094538,12.155151,Brinckmansdorf,https://www.wikidata.org/wiki/Q917349,brinckmansdorf,https://www.wikidata.org/wiki/Q104163770,Altkarlshof,6,,18146,FSN Autohaus,https://www.wikidata.org/wiki/Q156578,fsn_autohaus,Volkswagen Group,volkswagen_group_charging_gmbh,semipublic,2,1x Combo Typ 2 22kW; 1x Typ2 11 kW,ADAC e-Charge;EnBW mobility+;LogPay Charge&Fuel Card und App;MAINGAU Autostrom;Shell Recharge,,24/7,https://www.goingelectric.de/stromtankstellen/Deutschland/Rostock/FSN-Autohaus-Altkarlshof-6/54937/
54.101316,12.180741,Brinckmansdorf,https://www.wikidata.org/wiki/Q917349,brinckmansdorf,https://www.wikidata.org/wiki/Q104164881,Rövershäger Chaussee,5,,18146,Autohaus Rostock,,autohaus_rostock,Autohaus Rostock Ost GmbH,autohaus_rostock_ost_gmbh,semipublic,2,1x Typ 2 22 kW; 1x Combo Typ 2 75 kW,ADAC e-Charge;EnBW mobility+;MAINGAU Autostrom;Plugsurfing;Shell Recharge,,24/7,https://www.goingelectric.de/stromtankstellen/Deutschland/Rostock/Autohaus-Rostock-Roevershaeger-Chaussee-5/64588/
54.137885,12.114089,Peez,https://www.wikidata.org/wiki/Q2067247,peez,https://www.wikidata.org/wiki/Q104165155,Zum Südtor,6,,18147,HEM Tankstelle,https://www.wikidata.org/wiki/Q75560554,hem_tankstelle,Allego,allego_gmbh,public,3,1x CHAdeMO 50 kW; 1x Combo Typ 2 50 kW; 1x Typ 2 43 kW,ADAC e-Charge;EnBW mobility+;MAINGAU Autostrom;Plugsurfing;Shell Recharge,chargeable,24/7,https://www.goingelectric.de/stromtankstellen/Deutschland/Rostock/HEM-Tankstelle-Zum-Suedtor-8/33130/
54.093244,12.109034,Kröpeliner-Tor-Vorstadt,https://www.wikidata.org/wiki/Q1790661,kropeliner_tor_vorstadt,https://www.wikidata.org/wiki/Q104164625,Lübecker Straße,30,,18057,Lübecker Str. 30,https://www.wikidata.org/wiki/Q39524051,lubecker_str_30,Stadtwerke Rostock,stadtwerke_rostock_ag,public,3,Typ 2 22 kW,Stadtwerke Rostock,,24/7,https://www.e-stations.de/ladestationen/map
54.174821,12.009361,Diedrichshagen,https://www.wikidata.org/wiki/Q638302,seebad_diedrichshagen,https://www.wikidata.org/wiki/Q104164997,Stolteraer Weg,47,,18119,Hotel Ostseeland,,hotel_ostseeland,Hotel Ostseeland,hotel_ostseeland,public,4,Typ 2 22 kW,ADAC e-Charge;EnBW mobility+;MAINGAU Autostrom;Plugsurfing;Shell Recharge,,24/7,https://www.goingelectric.de/stromtankstellen/Deutschland/Rostock/Hotel-Restaurant-Ostseeland-Stolteraer-Weg-47/78415/
54.176585,12.085439,Warnemünde,https://www.wikidata.org/wiki/Q311849,seebad_warnemunde,https://www.wikidata.org/wiki/Q104163687,Kirchenplatz,1,,18119,Kirchenplatz Warnemünde,https://www.wikidata.org/wiki/Q39524051,kirchenplatz_warnemunde,Stadtwerke Rostock,stadtwerke_rostock_ag,public,4,2x Typ 2 22 kW; 2x Schuko 3.7 kW,ADAC e-Charge;EnBW mobility+;MAINGAU Autostrom;Plugsurfing;Stadtwerke Rostock,0.39 €/kWh; Base 0.99 €,24/7,https://www.goingelectric.de/stromtankstellen/Deutschland/Rostock/Kirchenplatz-Warnemuende-Kirchenplatz-1/9523/
54.170536,12.087852,Warnemünde,https://www.wikidata.org/wiki/Q311849,seebad_warnemunde,https://www.wikidata.org/wiki/Q104165160,Zum Zollamt,5,,18119,Parkhaus Molenfeuer,https://www.wikidata.org/wiki/Q39524051,parkhaus_molenfeuer,Stadtwerke Rostock,stadtwerke_rostock_ag,semipublic,4,Typ 2 22kW,ADAC e-Charge;EnBW mobility+;MAINGAU Autostrom;Plugsurfing,,24/7,https://www.goingelectric.de/stromtankstellen/Deutschland/Rostock/Parkhaus-Molenfeuer-Zum-Zollamt-5/58987/
54.123294,12.074454,Schmarl,https://www.wikidata.org/wiki/Q681873,schmarl,https://www.wikidata.org/wiki/Q104164279,Handwerkstraße,5,,18069,Citti-Park,https://www.wikidata.org/wiki/Q644304,citti_park,EnBW,enbw_energie_baden_wurttemberg_ag,public,8,4x Combo Typ 2 150 kW; 4x Combo Typ 2 300 kW,ADAC e-Charge;EnBW mobility+;MAINGAU Autostrom;Plugsurfing;Shell Recharge,,24/7,https://www.goingelectric.de/stromtankstellen/Deutschland/Rostock/CITTI-PARK-Handwerkstrasse-1/63480/
54.107068,12.057319,Evershagen,https://www.wikidata.org/wiki/Q1382123,evershagen,https://www.wikidata.org/wiki/Q104163857,An den Griebensöllen,2,,18069,Parkplatz Bauhaus,https://www.wikidata.org/wiki/Q644304,parkplatz_bauhaus,EnBW,enbw_energie_baden_wurttemberg_ag,semipublic,4,2x Combo Typ 2 300 kW; 2x Combo Typ 2 150 kW,ADAC e-Charge;EnBW mobility+;MAINGAU Autostrom;Plugsurfing;Shell Recharge,,Mo-Sa 07:00-20:00,https://www.goingelectric.de/stromtankstellen/Deutschland/Rostock/Bauhaus-An-den-Griebensoellen-1/69472/
54.098715,12.086254,Reutershagen,https://www.wikidata.org/wiki/Q1486513,reutershagen,https://www.wikidata.org/wiki/Q104164239,Grazer Straße,1,,18069,Parkplatz Kunsthalle,https://www.wikidata.org/wiki/Q39524051,parkplatz_kunsthalle,Stadtwerke Rostock,stadtwerke_rostock_ag,public,2,Typ 2 22 kW,ADAC e-Charge;EnBW mobility+;GET CHARGE;MAINGAU Autostrom;Plugsurfing;Stadtwerke Rostock,0.39 €/kWh; Base 0.99 €,24/7,https://www.goingelectric.de/stromtankstellen/Deutschland/Rostock/Kunsthalle-Grazer-Strasse-1/44414/
54.085525,12.100093,Hansaviertel,https://www.wikidata.org/wiki/Q1336008,hansaviertel,https://www.wikidata.org/wiki/Q104163715,Schillingallee,71,,18057,Universitätsklinikum,https://www.wikidata.org/wiki/Q39524051,universitatsklinikum,Stadtwerke Rostock,stadtwerke_rostock_ag,public,2,Typ 2 22 kW,ADAC e-Charge;EnBW mobility+;MAINGAU Autostrom;Plugsurfing,0.39 €/kWh; Base 0.99 €,24/7,https://www.goingelectric.de/stromtankstellen/Deutschland/Rostock/Universitaetsklinikum-Schillingallee-71/43307/
54.078194,12.132776,Stadtmitte,https://www.wikidata.org/wiki/Q1124159,stadtmitte,https://www.wikidata.org/wiki/Q104164333,Herweghstraße,51,,18055,IntercityHotel,https://www.wikidata.org/wiki/Q29000342,intercityhotel,TOTAL Deutschland GmbH,total_deutschland_gmbh,semipublic,2,Typ 2 22 kW,ADAC e-Charge;EnBW mobility+;MAINGAU Autostrom;Plugsurfing;Shell Recharge,,24/7,https://www.goingelectric.de/stromtankstellen/Deutschland/Rostock/IntercityHotel-Herweghstrasse-51/54128/
54.084067,12.136002,Stadtmitte,https://www.wikidata.org/wiki/Q1124159,stadtmitte,https://www.wikidata.org/wiki/Q99302548,Paulstraße,33,,18055,Hermannstr. 32,https://www.wikidata.org/wiki/Q39524051,hermannstr_32,Stadtwerke Rostock,stadtwerke_rostock_ag,public,2,Typ 2 22 kW,ADAC e-Charge;EnBW mobility+;MAINGAU Autostrom;Plugsurfing;Stadtwerke Rostock,0.39 €/kWh; Base 0.99 €,24/7,https://www.goingelectric.de/stromtankstellen/Deutschland/Rostock/Hermannstrasse-Hermannstrasse-35/38864/
54.081326,12.192001,Brinckmansdorf,https://www.wikidata.org/wiki/Q917349,brinckmansdorf,https://www.wikidata.org/wiki/Q104165030,Timmermannsstrat,3,,18055,A.T.U.,https://www.wikidata.org/wiki/Q75560554,atu,Allego,allego_gmbh,semipublic,3,1x Combo Typ 2 50kW; 1x Typ2 43 kW; 1x CHAdeMO 50kW,ADAC e-Charge;EnBW mobility+;MAINGAU Autostrom;Plugsurfing;Shell Recharge,,24/7,https://www.goingelectric.de/stromtankstellen/Deutschland/Rostock/ATU-Timmermannsstrat-3/29596/
54.099138,12.176441,Brinckmansdorf,https://www.wikidata.org/wiki/Q917349,brinckmansdorf,https://www.wikidata.org/wiki/Q104163760,Alt Bartelsdorfer Straße,18,,18146,Grönfingers,https://www.wikidata.org/wiki/Q75560554,gronfingers,Allego,allego_gmbh,public,6,Combo Typ 2 300 kW,ADAC e-Charge;EnBW mobility+;MAINGAU Autostrom;Plugsurfing;Shell Recharge,,24/7,https://www.goingelectric.de/stromtankstellen/Deutschland/Rostock/Groenfingers-Roevershaeger-Chaussee-1/44152/
54.142702,12.10256,Peez,https://www.wikidata.org/wiki/Q2067247,peez,https://www.wikidata.org/wiki/Q104164957,Simon-van-Utrecht-Straße,1,,18147,Parkplatz P2 Seehafen,,parkplatz_p2_seehafen,TankE GmbH,tanke_gmbh,public,6,2 x Combo Typ 2 (CCS) EU 50 kW; 2 x CHAdeMO 50 kW; 2 x Typ 2 Dose 22 kW,ADAC e-Charge;DKV Card+Charge;EnBW mobility+;TankE-Netzwerk,,24/7,https://www.goingelectric.de/stromtankstellen/Deutschland/Rostock/Parkplatz-P2-Seehafen-Ost-West-Strasse/76504/
54.107701,12.158064,Dierkow-West,https://www.wikidata.org/wiki/Q15944749,dierkow_west,https://www.wikidata.org/wiki/Q104164337,Hinrichsdorfer Straße,13,a,18146,Lidl,https://www.wikidata.org/wiki/Q151954,lidl,Lidl,lidl_vertriebs_gmbh_and_co_kg,semipublic,3,1x Typ 2 22 kW; 1x CHAdeMO 50 kW; 1x Combo Typ 2 50 kW,ADAC e-Charge;EnBW mobility+;MAINGAU Autostrom;Plugsurfing;Shell Recharge,,Mo-Sa 07:00-21:00,https://www.goingelectric.de/stromtankstellen/Deutschland/Rostock/Lidl-Hinrichsdorfer-Strasse-Hinrichsdorfer-Strasse-13a/47003/
54.086457,12.126408,Stadtmitte,https://www.wikidata.org/wiki/Q1124159,stadtmitte,https://www.wikidata.org/wiki/Q104163842,Am Vögenteich,25,,18055,Am Vögenteich 25,https://www.wikidata.org/wiki/Q39524051,am_vogenteich_25,Stadtwerke Rostock,stadtwerke_rostock_ag,public,2,Typ 2 22 kW,Stadtwerke Rostock,,24/7,https://www.e-stations.de/ladestationen/map
54.090974,12.149139,Stadtmitte,https://www.wikidata.org/wiki/Q1124159,stadtmitte,https://www.wikidata.org/wiki/Q2294800,Slüterstraße,10,,18055,Parkplatz Slüterstr.,https://www.wikidata.org/wiki/Q39524051,parkplatz_sluterstr,Stadtwerke Rostock,stadtwerke_rostock_ag,public,2,Typ 2 22 kW,ADAC e-Charge;EnBW mobility+;MAINGAU Autostrom;Plugsurfing;Stadtwerke Rostock,,24/7,https://www.goingelectric.de/stromtankstellen/Deutschland/Rostock/Parkplatz-Slueterstrasse-Slueterstrasse-10/78572/
